[{"OBJECT_NAME":"STARLINK-3956","OBJECT_ID":"2022-051AD","EPOCH":"2026-03-09T12:22:59.973888","MEAN_MOTION":15.08833553,"ECCENTRICITY":0.00014173,"INCLINATION":53.2171,"RA_OF_ASC_NODE":119.9012,"ARG_OF_PERICENTER":98.559,"MEAN_ANOMALY":261.5563,"EPHEMERIS_TYPE":0,"CLASSIFICATION_TYPE":"U","NORAD_CAT_ID":52560,"ELEMENT_SET_NO":999,"REV_AT_EPOCH":21155,"BSTAR":-3.2019075e-5,"MEAN_MOTION_DOT":-7.97e-6,"MEAN_MOTION_DDOT":0},{"OBJECT_NAME":"RAPIDEYE 1","OBJECT_ID":"2008-040C","EPOCH":"2026-03-09T15:08:44.758176","MEAN_MOTION":15.03049091,"ECCENTRICITY":0.0028174,"INCLINATION":97.4223,"RA_OF_ASC_NODE":100.7722,"ARG_OF_PERICENTER":157.1968,"MEAN_ANOMALY":203.0516,"EPHEMERIS_TYPE":0,"CLASSIFICATION_TYPE":"U","NORAD_CAT_ID":33314,"ELEMENT_SET_NO":999,"REV_AT_EPOCH":95070,"BSTAR":0.00023277,"MEAN_MOTION_DOT":3.104e-5,"MEAN_MOTION_DDOT":0}]
